{"type":"FeatureCollection","features":[{"type":"Feature","geometry":{"type":"Polygon","coordinates":[[[-61.04639,-27.998001],[-58.884005,-28.000001],[-58.893694,-28.035274],[-58.880822,-28.066825],[-58.945113,-28.133774],[-59.062413,-28.128109],[-59.087635,-28.171772],[-59.086207,-28.199493],[-59.107868,-28.222766],[-59.103458,-28.328816],[-59.076213,-28.365341],[-59.085977,-28.435966],[-59.048857,-28.493311],[-59.100008,-28.576399],[-59.105013,-28.633937],[-59.078601,-28.667487],[-59.160454,-28.794789],[-59.158075,-28.877356],[-59.210899,-28.977531],[-59.199715,-29.031545],[-59.257536,-29.089604],[-59.346766,-29.11435],[-59.407814,-29.221376],[-59.500633,-29.243518],[-59.519788,-29.343189],[-59.604283,-29.394743],[-59.579953,-29.459848],[-59.590185,-29.569779],[-59.613979,-29.668765],[-59.617549,-29.77584],[-59.659665,-29.843179],[-59.6047,-29.902666],[-59.588911,-29.976252],[-59.56639,-30.008076],[-59.616121,-30.11301],[-59.636584,-30.237456],[-59.712013,-30.276241],[-59.693453,-30.313123],[-59.666803,-30.327161],[-59.703439,-30.44261],[-59.65033,-30.500977],[-59.645856,-30.597037],[-59.678406,-30.646912],[-59.633301,-30.713928],[-59.699394,-30.769072],[-59.704867,-30.817376],[-59.734848,-30.876624],[-59.818176,-30.942505],[-59.87793,-31.056213],[-59.925443,-31.105052],[-59.963379,-31.119873],[-60.002686,-31.238586],[-60.105591,-31.289917],[-60.086792,-31.346985],[-60.138428,-31.413391],[-60.143494,-31.443604],[-60.212354,-31.467816],[-60.244001,-31.530395],[-60.332807,-31.547156],[-60.330665,-31.608546],[-60.46759,-31.698303],[-60.584078,-31.708484],[-60.638794,-31.742004],[-60.638567,-31.787482],[-60.675781,-31.811707],[-60.657227,-31.911316],[-60.721849,-31.966179],[-60.720659,-31.985215],[-60.684387,-32.012085],[-60.656006,-32.067078],[-60.700382,-32.149769],[-60.672607,-32.232605],[-60.679018,-32.319529],[-60.718993,-32.334044],[-60.711617,-32.393055],[-60.723816,-32.456116],[-60.776184,-32.507019],[-60.747375,-32.554321],[-60.752075,-32.622192],[-60.723514,-32.671689],[-60.716003,-32.773621],[-60.658875,-32.831177],[-60.681398,-32.871564],[-60.676208,-32.899597],[-60.620246,-32.947945],[-60.605493,-32.999817],[-60.493408,-33.131409],[-60.392055,-33.188984],[-60.335662,-33.176849],[-60.303063,-33.183511],[-60.284504,-33.207068],[-60.297829,-33.242284],[-60.252392,-33.275415],[-60.267107,-33.265935],[-60.272714,-33.263863],[-60.264612,-33.281316],[-60.323963,-33.350753],[-60.335288,-33.412105],[-60.410217,-33.467886],[-60.423841,-33.528429],[-60.413831,-33.545012],[-60.45738,-33.58236],[-60.462817,-33.634187],[-60.556949,-33.646598],[-60.61992,-33.628344],[-60.684582,-33.585157],[-60.781951,-33.578969],[-60.818249,-33.540293],[-60.87909,-33.554734],[-60.918108,-33.58837],[-60.934033,-33.654727],[-61.719753,-34.385555],[-62.883909,-34.38655],[-61.923249,-33.119581],[-61.888748,-33.10599],[-61.787668,-33.006202],[-61.791,-32.958407],[-61.771552,-32.901465],[-61.792243,-32.877228],[-61.77769,-32.830402],[-61.795699,-32.773966],[-61.828402,-32.754511],[-61.857988,-32.694552],[-61.907415,-32.695747],[-61.946626,-32.678481],[-61.946168,-32.651026],[-61.889495,-32.610798],[-61.891829,-32.590534],[-61.920591,-32.594278],[-61.926381,-32.584034],[-61.902477,-32.568619],[-61.905052,-32.552546],[-61.930573,-32.544506],[-61.912075,-32.526474],[-61.914512,-32.494664],[-62.011635,-32.347328],[-62.037889,-32.262914],[-62.145346,-32.193479],[-62.178877,-32.159422],[-62.19678,-32.11477],[-62.167797,-31.98601],[-62.188893,-31.922314],[-62.22349,-31.883934],[-62.218089,-31.740571],[-62.241683,-31.699677],[-62.123495,-31.605408],[-61.842175,-30.744316],[-62.130653,-30.480433],[-61.712045,-27.998552],[-61.04639,-27.998001]]]},"properties":{"id":"82","nombre":"Santa Fe","nombre_completo":"Provincia de Santa Fe","fuente":"IGN","categoria":"Provincia","centroide":{"lon":-60.950687277,"lat":-30.708822709},"iso_id":"AR-S","iso_nombre":"Santa Fe"}},{"type":"Feature","geometry":{"type":"MultiPolygon","coordinates":[[[[-57.011711,-27.487095],[-56.96963,-27.497928],[-56.942233,-27.558315],[-56.896587,-27.588813],[-56.845096,-27.6064],[-56.790758,-27.587161],[-56.743232,-27.605003],[-56.689199,-27.579028],[-56.677864,-27.563271],[-56.717054,-27.496937],[-56.718782,-27.464558],[-56.691029,-27.454341],[-56.649602,-27.460797],[-56.60355,-27.431417],[-56.556735,-27.456781],[-56.487046,-27.563677],[-56.42438,-27.602915],[-56.388842,-27.606019],[-56.356158,-27.58589],[-56.338367,-27.52403],[-56.293688,-27.494141],[-56.287181,-27.410932],[-56.237571,-27.402393],[-56.151922,-27.328739],[-56.086808,-27.30856],[-56.037043,-27.312912],[-56.024264,-27.324262],[-56.039903,-27.34809],[-56.028888,-27.382855],[-56.043216,-27.404992],[-56.036937,-27.415187],[-56.055421,-27.420687],[-56.054612,-27.450946],[-56.026635,-27.507277],[-55.9789,-27.5402],[-55.825537,-27.791656],[-55.846303,-27.832436],[-55.827123,-27.854597],[-55.831762,-27.904133],[-55.81359,-27.921022],[-55.824392,-27.948447],[-55.749427,-28.0271],[-55.758025,-28.06081],[-55.716718,-28.061268],[-55.71242,-28.088318],[-55.620237,-28.137544],[-55.632253,-28.176785],[-55.698109,-28.221033],[-55.782542,-28.253937],[-55.772689,-28.273936],[-55.732866,-28.285822],[-55.669942,-28.330763],[-55.691695,-28.417605],[-55.7175,-28.422158],[-55.732162,-28.384348],[-55.75745,-28.368588],[-55.878303,-28.361162],[-55.90303,-28.408104],[-55.882362,-28.477707],[-56.008646,-28.505999],[-56.025668,-28.535963],[-56.002271,-28.578489],[-56.007602,-28.604952],[-56.118573,-28.681681],[-56.185516,-28.770001],[-56.259155,-28.77832],[-56.29437,-28.797709],[-56.301949,-28.901111],[-56.409915,-28.977648],[-56.415482,-29.000697],[-56.398771,-29.025807],[-56.419525,-29.078981],[-56.507154,-29.092546],[-56.591503,-29.12431],[-56.605498,-29.162404],[-56.64541,-29.199299],[-56.649584,-29.272415],[-56.703944,-29.362244],[-56.767462,-29.382561],[-56.777172,-29.433488],[-56.813834,-29.48199],[-56.899923,-29.533387],[-56.957369,-29.589695],[-56.971205,-29.607736],[-56.970521,-29.641533],[-57.00587,-29.656121],[-57.037709,-29.698964],[-57.119526,-29.763675],[-57.169896,-29.781164],[-57.229949,-29.779164],[-57.289465,-29.825349],[-57.327833,-29.883264],[-57.325337,-29.95893],[-57.336775,-29.990385],[-57.408541,-30.032024],[-57.474243,-30.119768],[-57.54904,-30.166021],[-57.645072,-30.182408],[-57.651858,-30.201794],[-57.61524,-30.254466],[-57.64292,-30.341905],[-57.889609,-30.510684],[-57.887304,-30.587569],[-57.846552,-30.620536],[-57.843369,-30.65955],[-57.808973,-30.695269],[-57.809509,-30.730192],[-57.843748,-30.721658],[-57.854835,-30.69465],[-57.894779,-30.669411],[-57.97485,-30.64734],[-57.980233,-30.629397],[-58.033321,-30.597927],[-58.037025,-30.5679],[-58.069126,-30.544908],[-58.057776,-30.496419],[-58.077347,-30.465802],[-58.072575,-30.425187],[-58.142282,-30.405238],[-58.19195,-30.335628],[-58.20739,-30.288077],[-58.28555,-30.244631],[-58.343726,-30.27125],[-58.369324,-30.264734],[-58.437047,-30.221675],[-58.451527,-30.224856],[-58.462136,-30.206458],[-58.496562,-30.207688],[-58.553486,-30.18521],[-58.576499,-30.160041],[-58.630015,-30.176859],[-58.647139,-30.163194],[-58.681665,-30.163581],[-58.680701,-30.175028],[-58.733757,-30.193413],[-58.748357,-30.213884],[-58.803753,-30.210834],[-58.878856,-30.246662],[-58.912017,-30.248214],[-58.965202,-30.21834],[-59.064251,-30.230818],[-59.081459,-30.249074],[-59.075638,-30.257267],[-59.136577,-30.286569],[-59.136475,-30.311574],[-59.192139,-30.329546],[-59.229703,-30.364175],[-59.273512,-30.352434],[-59.288267,-30.361884],[-59.298893,-30.346712],[-59.323732,-30.354244],[-59.347148,-30.324657],[-59.419647,-30.315736],[-59.44097,-30.329455],[-59.464028,-30.324323],[-59.464823,-30.33703],[-59.490212,-30.344331],[-59.557735,-30.33265],[-59.556837,-30.352302],[-59.565845,-30.347612],[-59.574664,-30.370974],[-59.57244,-30.408418],[-59.587769,-30.434822],[-59.609614,-30.425138],[-59.63682,-30.357754],[-59.671672,-30.338662],[-59.668945,-30.32383],[-59.693453,-30.313123],[-59.712013,-30.276241],[-59.636584,-30.237456],[-59.616121,-30.11301],[-59.56639,-30.008076],[-59.588911,-29.976252],[-59.6047,-29.902666],[-59.659665,-29.843179],[-59.617549,-29.77584],[-59.613979,-29.668765],[-59.590185,-29.569779],[-59.579953,-29.459848],[-59.604283,-29.394743],[-59.519788,-29.343189],[-59.500633,-29.243518],[-59.407814,-29.221376],[-59.346766,-29.11435],[-59.257536,-29.089604],[-59.199715,-29.031545],[-59.210899,-28.977531],[-59.158075,-28.877356],[-59.160454,-28.794789],[-59.078601,-28.667487],[-59.105013,-28.633937],[-59.100008,-28.576399],[-59.048857,-28.493311],[-59.085977,-28.435966],[-59.076213,-28.365341],[-59.103458,-28.328816],[-59.107868,-28.222766],[-59.086207,-28.199493],[-59.087635,-28.171772],[-59.062413,-28.128109],[-58.952965,-28.137106],[-58.859734,-28.050318],[-58.857739,-28.011612],[-58.829262,-27.961873],[-58.844006,-27.880447],[-58.809708,-27.783407],[-58.818775,-27.681178],[-58.835497,-27.646641],[-58.882746,-27.608523],[-58.871019,-27.571271],[-58.881938,-27.499654],[-58.793519,-27.393176],[-58.768318,-27.376276],[-58.74556,-27.382238],[-58.668787,-27.359092],[-58.616488,-27.318632],[-58.515722,-27.291032],[-58.493509,-27.270649],[-58.372854,-27.290794],[-58.249489,-27.261669],[-58.191339,-27.280832],[-58.009875,-27.259381],[-57.970989,-27.274986],[-57.932307,-27.264108],[-57.873551,-27.272966],[-57.827241,-27.327545],[-57.805291,-27.339396],[-57.697013,-27.326884],[-57.609788,-27.395708],[-57.543506,-27.432967],[-57.507518,-27.444201],[-57.439005,-27.438282],[-57.326511,-27.409839],[-57.225409,-27.470378],[-57.120548,-27.493446],[-57.060203,-27.481265],[-57.011711,-27.487095]],[[-57.903349,-27.27382],[-57.910579,-27.274395],[-57.912872,-27.276645],[-57.89824,-27.277518],[-57.862389,-27.294362],[-57.903349,-27.27382]],[[-57.906716,-27.290551],[-57.895896,-27.288114],[-57.894726,-27.280316],[-57.918386,-27.282459],[-57.906716,-27.290551]],[[-57.952914,-27.276011],[-57.939427,-27.277289],[-57.944874,-27.286171],[-57.923928,-27.275242],[-57.952914,-27.276011]],[[-57.942278,-27.268918],[-57.926743,-27.268808],[-57.921479,-27.266981],[-57.930069,-27.265336],[-57.942278,-27.268918]],[[-57.921877,-27.272629],[-57.917728,-27.276162],[-57.913537,-27.273902],[-57.917933,-27.274272],[-57.921877,-27.272629]]],[[[-56.914826,-27.42354],[-56.871761,-27.430442],[-56.764027,-27.502565],[-56.7294,-27.501961],[-56.737973,-27.550577],[-56.840421,-27.596181],[-56.87158,-27.58346],[-56.887897,-27.554936],[-56.903059,-27.537397],[-56.912073,-27.531478],[-56.93278,-27.526781],[-56.943637,-27.517852],[-56.952438,-27.514768],[-56.970105,-27.492732],[-57.032066,-27.480648],[-56.914826,-27.42354]]],[[[-57.566611,-27.385118],[-57.502453,-27.403322],[-57.404192,-27.4166],[-57.4656,-27.431654],[-57.478021,-27.436616],[-57.484351,-27.435521],[-57.492187,-27.438701],[-57.593415,-27.392452],[-57.566611,-27.385118]]],[[[-56.705257,-27.563307],[-56.734235,-27.591428],[-56.783897,-27.582692],[-56.761369,-27.577493],[-56.756046,-27.57477],[-56.741997,-27.563506],[-56.740087,-27.563489],[-56.734045,-27.558731],[-56.716932,-27.519936],[-56.699665,-27.536523],[-56.705765,-27.557421],[-56.705257,-27.563307]]],[[[-56.956935,-27.516053],[-56.946156,-27.525062],[-56.925911,-27.535369],[-56.910732,-27.539054],[-56.894129,-27.551716],[-56.875988,-27.583573],[-56.900854,-27.569427],[-56.91961,-27.562565],[-56.932373,-27.535113],[-56.951989,-27.523312],[-56.956935,-27.516053]]],[[[-57.82595,-27.302602],[-57.775227,-27.314999],[-57.768948,-27.321109],[-57.819451,-27.318697],[-57.82595,-27.302602]]],[[[-56.699595,-27.578159],[-56.706684,-27.580773],[-56.693316,-27.545063],[-56.686068,-27.560886],[-56.699595,-27.578159]]],[[[-57.752547,-27.320163],[-57.74152,-27.323307],[-57.75212,-27.327925],[-57.782765,-27.32782],[-57.798088,-27.325021],[-57.794081,-27.32573],[-57.791364,-27.324007],[-57.787068,-27.325632],[-57.752547,-27.320163]]],[[[-58.223046,-27.256236],[-58.215346,-27.258624],[-58.204121,-27.25965],[-58.1967,-27.259137],[-58.190818,-27.262456],[-58.187877,-27.263104],[-58.184773,-27.263319],[-58.183694,-27.262942],[-58.183093,-27.261355],[-58.170484,-27.269217],[-58.211347,-27.263184],[-58.223046,-27.256236]]],[[[-58.303643,-27.262458],[-58.31784,-27.2725],[-58.335558,-27.273423],[-58.321649,-27.262574],[-58.303643,-27.262458]]],[[[-58.150203,-27.257994],[-58.138566,-27.265546],[-58.178002,-27.259267],[-58.156434,-27.255864],[-58.150203,-27.257994]]],[[[-56.35707,-27.517885],[-56.36473,-27.533633],[-56.3712,-27.538533],[-56.367441,-27.520406],[-56.35707,-27.517885]]],[[[-56.944729,-27.53584],[-56.930999,-27.548674],[-56.930017,-27.557105],[-56.941517,-27.546119],[-56.944729,-27.53584]]],[[[-58.224674,-27.2549],[-58.189397,-27.257697],[-58.183839,-27.261834],[-58.196808,-27.258867],[-58.214726,-27.258435],[-58.224674,-27.2549]]],[[[-57.82147,-27.31831],[-57.837282,-27.307302],[-57.838822,-27.297833],[-57.827021,-27.309075],[-57.82147,-27.31831]]],[[[-56.928489,-27.530362],[-56.911989,-27.5329],[-56.907881,-27.538645],[-56.9246,-27.534686],[-56.928489,-27.530362]]],[[[-57.448871,-27.432221],[-57.451574,-27.436582],[-57.472951,-27.438564],[-57.463196,-27.433926],[-57.448871,-27.432221]]],[[[-58.291622,-27.266431],[-58.301328,-27.271593],[-58.312138,-27.27169],[-58.300387,-27.265814],[-58.291622,-27.266431]]],[[[-57.814601,-27.320683],[-57.787826,-27.320612],[-57.78413,-27.322537],[-57.786963,-27.325336],[-57.790252,-27.323727],[-57.792176,-27.324077],[-57.79459,-27.325266],[-57.818483,-27.320124],[-57.814601,-27.320683]]],[[[-57.221511,-27.464203],[-57.232337,-27.463443],[-57.239298,-27.456655],[-57.232975,-27.457467],[-57.221511,-27.464203]]],[[[-56.921087,-27.563079],[-56.902184,-27.57029],[-56.899074,-27.573137],[-56.9128,-27.570917],[-56.921087,-27.563079]]],[[[-58.423271,-27.270154],[-58.420368,-27.279649],[-58.422009,-27.280627],[-58.431126,-27.268229],[-58.423271,-27.270154]]],[[[-58.332672,-27.266267],[-58.337693,-27.27377],[-58.345599,-27.274808],[-58.341444,-27.269441],[-58.332672,-27.266267]]],[[[-56.938793,-27.524839],[-56.947813,-27.522284],[-56.954815,-27.514896],[-56.94276,-27.520435],[-56.938793,-27.524839]]],[[[-56.329329,-27.501225],[-56.343201,-27.508499],[-56.3443,-27.507991],[-56.320702,-27.495473],[-56.329329,-27.501225]]],[[[-56.77472,-27.576272],[-56.772225,-27.572203],[-56.75618,-27.569443],[-56.75872,-27.571362],[-56.764043,-27.572065],[-56.77472,-27.576272]]],[[[-58.232783,-27.259818],[-58.223997,-27.262112],[-58.244081,-27.253966],[-58.235813,-27.258693],[-58.232783,-27.259818]]],[[[-58.085893,-27.262054],[-58.093676,-27.266257],[-58.100041,-27.266305],[-58.090524,-27.259874],[-58.085893,-27.262054]]],[[[-56.754009,-27.57028],[-56.760082,-27.575118],[-56.772225,-27.576443],[-56.767165,-27.573407],[-56.754009,-27.57028]]],[[[-57.817783,-27.324951],[-57.806309,-27.325546],[-57.802601,-27.327855],[-57.820477,-27.324566],[-57.817783,-27.324951]]],[[[-56.71627,-27.579284],[-56.718509,-27.585508],[-56.732994,-27.592678],[-56.722726,-27.58574],[-56.71627,-27.579284]]],[[[-57.784024,-27.330417],[-57.772207,-27.329422],[-57.769098,-27.330169],[-57.779173,-27.333154],[-57.784833,-27.332221],[-57.786823,-27.328552],[-57.784024,-27.330417]]],[[[-58.197323,-27.269238],[-58.187682,-27.269887],[-58.184533,-27.272516],[-58.200732,-27.268945],[-58.197323,-27.269238]]],[[[-56.731839,-27.532994],[-56.731179,-27.527566],[-56.726104,-27.519706],[-56.725842,-27.525369],[-56.731839,-27.532994]]],[[[-56.759079,-27.591047],[-56.753385,-27.592099],[-56.749424,-27.593461],[-56.749115,-27.593956],[-56.759079,-27.591047]]],[[[-56.939771,-27.535489],[-56.937078,-27.537876],[-56.933892,-27.544083],[-56.946785,-27.532692],[-56.939771,-27.535489]]],[[[-56.701363,-27.55255],[-56.70123,-27.55839],[-56.703737,-27.563565],[-56.705029,-27.558398],[-56.701363,-27.55255]]],[[[-57.543052,-27.424431],[-57.539458,-27.427787],[-57.553169,-27.419738],[-57.551941,-27.419533],[-57.543052,-27.424431]]],[[[-56.730764,-27.542449],[-56.731921,-27.536602],[-56.729446,-27.533384],[-56.727606,-27.537425],[-56.730764,-27.542449]]],[[[-56.874278,-27.582497],[-56.863582,-27.58762],[-56.862235,-27.588762],[-56.871965,-27.586544],[-56.874278,-27.582497]]],[[[-58.329729,-27.263728],[-58.335154,-27.264016],[-58.324073,-27.261362],[-58.324996,-27.262054],[-58.329729,-27.263728]]],[[[-58.293429,-27.256285],[-58.288235,-27.25622],[-58.286417,-27.256577],[-58.291384,-27.260115],[-58.299532,-27.255636],[-58.293429,-27.256285]]],[[[-58.611951,-27.316852],[-58.613093,-27.313283],[-58.607097,-27.312854],[-58.609024,-27.316138],[-58.611951,-27.316852]]],[[[-56.861615,-27.592128],[-56.855197,-27.592904],[-56.855711,-27.594831],[-56.866247,-27.591876],[-56.861615,-27.592128]]],[[[-57.444129,-27.429413],[-57.450031,-27.431948],[-57.454806,-27.430925],[-57.44205,-27.427514],[-57.444129,-27.429413]]],[[[-58.165502,-27.274159],[-58.168732,-27.274042],[-58.169783,-27.2698],[-58.164996,-27.271396],[-58.165502,-27.274159]]],[[[-58.357731,-27.27492],[-58.36128,-27.274703],[-58.349075,-27.271803],[-58.351109,-27.274011],[-58.357731,-27.27492]]],[[[-58.192097,-27.27771],[-58.19411,-27.279431],[-58.19979,-27.277061],[-58.197778,-27.275957],[-58.192097,-27.27771]]],[[[-57.481254,-27.437477],[-57.479921,-27.438493],[-57.48784,-27.439153],[-57.484118,-27.436117],[-57.481254,-27.437477]]],[[[-56.781625,-27.572992],[-56.788961,-27.576244],[-56.789467,-27.575666],[-56.784516,-27.571655],[-56.781625,-27.572992]]],[[[-56.710336,-27.58133],[-56.711821,-27.581949],[-56.706684,-27.575079],[-56.706065,-27.57774],[-56.710336,-27.58133]]],[[[-57.541051,-27.429531],[-57.542869,-27.429697],[-57.548394,-27.426491],[-57.541232,-27.427582],[-57.541051,-27.429531]]],[[[-56.903637,-27.541573],[-56.905886,-27.540545],[-56.907363,-27.535663],[-56.903509,-27.537847],[-56.903637,-27.541573]]],[[[-56.765927,-27.569867],[-56.768081,-27.569071],[-56.761047,-27.567587],[-56.762446,-27.568803],[-56.765927,-27.569867]]],[[[-58.420597,-27.280978],[-58.413948,-27.281097],[-58.41312,-27.281593],[-58.418207,-27.283202],[-58.420597,-27.280978]]],[[[-56.945215,-27.530746],[-56.93928,-27.532507],[-56.937885,-27.534432],[-56.945622,-27.531965],[-56.945215,-27.530746]]],[[[-56.739175,-27.562097],[-56.741974,-27.561672],[-56.736843,-27.558564],[-56.736126,-27.560066],[-56.739175,-27.562097]]],[[[-57.563128,-27.410461],[-57.557194,-27.414144],[-57.554601,-27.416941],[-57.56456,-27.410529],[-57.563128,-27.410461]]],[[[-58.437706,-27.267721],[-58.436534,-27.270747],[-58.441708,-27.267037],[-58.441058,-27.265638],[-58.437706,-27.267721]]],[[[-57.610778,-27.383325],[-57.610586,-27.381637],[-57.60579,-27.381215],[-57.606365,-27.382251],[-57.610778,-27.383325]]],[[[-58.457404,-27.272953],[-58.4626,-27.271824],[-58.463321,-27.270848],[-58.45788,-27.2717],[-58.457404,-27.272953]]],[[[-56.689817,-27.569795],[-56.690297,-27.572176],[-56.693674,-27.574418],[-56.690861,-27.570039],[-56.689817,-27.569795]]],[[[-56.93127,-27.527496],[-56.928909,-27.527833],[-56.927512,-27.528749],[-56.934065,-27.527544],[-56.93127,-27.527496]]],[[[-58.262908,-27.259689],[-58.263817,-27.261247],[-58.267713,-27.26129],[-58.265635,-27.259689],[-58.262908,-27.259689]]],[[[-57.476975,-27.439656],[-57.47868,-27.439997],[-57.479294,-27.438837],[-57.475474,-27.438087],[-57.476975,-27.439656]]]]},"properties":{"id":"18","nombre":"Corrientes","nombre_completo":"Provincia de Corrientes","fuente":"IGN","categoria":"Provincia","centroide":{"lon":-57.80108186,"lat":-28.774204481},"iso_id":"AR-W","iso_nombre":"Corrientes"}},{"type":"Feature","geometry":{"type":"Polygon","coordinates":[[[-58.585342,-30.159018],[-58.496562,-30.207688],[-58.461072,-30.206935],[-58.451527,-30.224856],[-58.437047,-30.221675],[-58.369324,-30.264734],[-58.343726,-30.27125],[-58.28555,-30.244631],[-58.20739,-30.288077],[-58.19195,-30.335628],[-58.142282,-30.405238],[-58.072575,-30.425187],[-58.077347,-30.465802],[-58.057776,-30.496419],[-58.069126,-30.544908],[-58.037025,-30.5679],[-58.033522,-30.597695],[-57.980233,-30.629397],[-57.97485,-30.64734],[-57.894779,-30.669411],[-57.854835,-30.69465],[-57.843748,-30.721658],[-57.821523,-30.719403],[-57.797397,-30.782707],[-57.79979,-30.856979],[-57.824487,-30.91163],[-57.846007,-30.919908],[-57.893289,-30.907073],[-57.914899,-30.920564],[-57.861725,-31.043471],[-57.916687,-31.122593],[-57.91314,-31.212921],[-57.937054,-31.273264],[-57.980907,-31.318799],[-57.996945,-31.360511],[-57.979348,-31.388399],[-58.082394,-31.457827],[-58.078266,-31.488811],[-58.003795,-31.531906],[-57.980639,-31.581048],[-58.012854,-31.686734],[-58.035054,-31.718821],[-58.038148,-31.759064],[-58.086138,-31.821137],[-58.190237,-31.852978],[-58.20681,-31.871645],[-58.191344,-31.920347],[-58.168715,-31.932089],[-58.1383,-32.001843],[-58.143142,-32.060556],[-58.167404,-32.091382],[-58.183326,-32.1592],[-58.099882,-32.260012],[-58.100891,-32.303516],[-58.12299,-32.339999],[-58.183357,-32.376675],[-58.204588,-32.462003],[-58.187387,-32.532869],[-58.160583,-32.57078],[-58.145047,-32.671127],[-58.149629,-32.734879],[-58.119798,-32.815234],[-58.115576,-32.919768],[-58.087324,-32.958903],[-58.08418,-33.000123],[-58.098902,-33.020388],[-58.175963,-33.076893],[-58.361818,-33.120989],[-58.404368,-33.180052],[-58.409848,-33.235555],[-58.39047,-33.279121],[-58.397185,-33.313767],[-58.431714,-33.363329],[-58.44315,-33.44808],[-58.433904,-33.499159],[-58.445011,-33.541052],[-58.494713,-33.586549],[-58.434369,-33.721887],[-58.423586,-33.916318],[-58.344989,-34.038397],[-58.378925,-34.012226],[-58.463196,-34.001892],[-58.60717,-34.037871],[-58.654997,-34.035254],[-58.763739,-33.94531],[-58.830601,-33.955304],[-58.854872,-33.947214],[-58.89978,-33.890991],[-58.97789,-33.870357],[-58.992881,-33.841804],[-59.020482,-33.848942],[-59.055481,-33.832397],[-59.130676,-33.847717],[-59.173584,-33.807007],[-59.24231,-33.807495],[-59.254883,-33.785889],[-59.235413,-33.73999],[-59.254272,-33.72229],[-59.377686,-33.736511],[-59.437012,-33.729004],[-59.467773,-33.704285],[-59.479309,-33.652893],[-59.516737,-33.630834],[-59.593207,-33.689071],[-59.617418,-33.693741],[-59.636037,-33.642701],[-59.65891,-33.620037],[-59.787638,-33.603648],[-59.809381,-33.588509],[-59.80953,-33.551657],[-59.833949,-33.521259],[-59.894744,-33.510284],[-59.933006,-33.474891],[-59.999393,-33.470132],[-60.04484,-33.447527],[-60.111084,-33.372986],[-60.169617,-33.348999],[-60.200684,-33.292175],[-60.297829,-33.242284],[-60.284504,-33.207068],[-60.303063,-33.183511],[-60.335662,-33.176849],[-60.392055,-33.188984],[-60.424178,-33.173994],[-60.513184,-33.112915],[-60.60121,-33.006004],[-60.620246,-32.947945],[-60.676208,-32.899597],[-60.681398,-32.871564],[-60.658875,-32.831177],[-60.716003,-32.773621],[-60.723514,-32.671689],[-60.752075,-32.622192],[-60.747375,-32.554321],[-60.776184,-32.507019],[-60.723816,-32.456116],[-60.711617,-32.393055],[-60.718993,-32.334044],[-60.679018,-32.319529],[-60.672607,-32.232605],[-60.700382,-32.149769],[-60.658555,-32.080155],[-60.658081,-32.05072],[-60.723514,-31.977601],[-60.719707,-31.958803],[-60.671875,-31.930176],[-60.652893,-31.897095],[-60.675781,-31.811707],[-60.640947,-31.791765],[-60.642883,-31.751221],[-60.627622,-31.73323],[-60.568135,-31.704914],[-60.46759,-31.698303],[-60.330665,-31.608546],[-60.332807,-31.547156],[-60.244001,-31.530395],[-60.212354,-31.467816],[-60.143494,-31.443604],[-60.138428,-31.413391],[-60.086792,-31.346985],[-60.105591,-31.289917],[-60.013428,-31.250671],[-59.963379,-31.119873],[-59.902838,-31.084827],[-59.818176,-30.942505],[-59.734848,-30.876624],[-59.704867,-30.817376],[-59.699394,-30.769072],[-59.63269,-30.711304],[-59.678406,-30.646912],[-59.645856,-30.597037],[-59.65033,-30.500977],[-59.703439,-30.44261],[-59.671672,-30.338662],[-59.63682,-30.357754],[-59.615097,-30.419207],[-59.587769,-30.434822],[-59.557735,-30.33265],[-59.490212,-30.344331],[-59.464823,-30.33703],[-59.464028,-30.324323],[-59.44097,-30.329455],[-59.419647,-30.315736],[-59.347148,-30.324657],[-59.323732,-30.354244],[-59.298893,-30.346712],[-59.288267,-30.361884],[-59.273512,-30.352434],[-59.229703,-30.364175],[-59.192139,-30.329546],[-59.136475,-30.311574],[-59.136577,-30.286569],[-59.075638,-30.257267],[-59.081459,-30.249074],[-59.064251,-30.230818],[-58.965202,-30.21834],[-58.912017,-30.248214],[-58.878856,-30.246662],[-58.803753,-30.210834],[-58.748357,-30.213884],[-58.733757,-30.193413],[-58.680701,-30.175028],[-58.681665,-30.163581],[-58.647139,-30.163194],[-58.630015,-30.176859],[-58.585342,-30.159018]],[[-58.110345,-32.971331],[-58.107656,-33.001667],[-58.109117,-33.010383],[-58.11455,-33.024698],[-58.087384,-32.996769],[-58.08891,-32.957851],[-58.099723,-32.951575],[-58.101165,-32.956382],[-58.107781,-32.962243],[-58.110345,-32.971331]],[[-58.114038,-33.021062],[-58.108105,-33.001483],[-58.11574,-32.990354],[-58.128755,-33.025391],[-58.114038,-33.021062]],[[-58.114955,-32.974192],[-58.108589,-32.961814],[-58.101435,-32.954354],[-58.112485,-32.931158],[-58.114955,-32.974192]],[[-58.114383,-32.990141],[-58.111339,-32.980019],[-58.111976,-32.971667],[-58.118078,-32.982034],[-58.114383,-32.990141]],[[-58.125538,-33.028812],[-58.12983,-33.02886],[-58.133199,-33.034628],[-58.12549,-33.029678],[-58.125538,-33.028812]],[[-58.124477,-33.004665],[-58.126438,-33.007848],[-58.125742,-33.011396],[-58.124401,-33.008557],[-58.124477,-33.004665]]]},"properties":{"id":"30","nombre":"Entre Ríos","nombre_completo":"Provincia de Entre Ríos","fuente":"IGN","categoria":"Provincia","centroide":{"lon":-59.201262616,"lat":-32.058927894},"iso_id":"AR-E","iso_nombre":"Entre Ríos"}},{"type":"Feature","geometry":{"type":"Polygon","coordinates":[[[-62.32434,-24.123184],[-62.301522,-24.116203],[-62.243528,-24.145432],[-62.228317,-24.135399],[-62.216433,-24.151103],[-62.182682,-24.155029],[-62.171749,-24.177707],[-62.180781,-24.19515],[-62.136097,-24.196022],[-62.138474,-24.218694],[-62.076428,-24.201301],[-62.082857,-24.230464],[-62.055286,-24.211282],[-62.041025,-24.240489],[-62.017733,-24.226976],[-61.989211,-24.250514],[-61.979229,-24.245284],[-61.984652,-24.227095],[-61.945003,-24.239182],[-61.95451,-24.26141],[-61.907838,-24.259432],[-61.904008,-24.27777],[-61.920264,-24.283899],[-61.908516,-24.306762],[-61.883681,-24.266639],[-61.879321,-24.307321],[-61.839948,-24.301497],[-61.798592,-24.336345],[-61.761514,-24.306725],[-61.760563,-24.328505],[-61.720633,-24.33983],[-61.728239,-24.359427],[-61.694013,-24.365959],[-61.713978,-24.383375],[-61.694488,-24.415154],[-61.639698,-24.434575],[-61.61035,-24.421683],[-61.60417,-24.455627],[-61.597515,-24.438221],[-61.582844,-24.441594],[-61.596403,-24.479293],[-61.518605,-24.51914],[-61.518764,-24.547014],[-61.477249,-24.57523],[-61.481052,-24.595225],[-61.453956,-24.612175],[-61.382725,-24.612757],[-61.381226,-24.637812],[-61.361836,-24.621647],[-61.346107,-24.638663],[-61.284728,-24.624342],[-61.276062,-24.639155],[-61.255731,-24.621735],[-61.244323,-24.653453],[-61.230062,-24.635205],[-61.22721,-24.655191],[-61.197262,-24.661272],[-61.199164,-24.674304],[-61.217703,-24.665616],[-61.201065,-24.682557],[-61.208074,-24.698026],[-61.180149,-24.722509],[-61.170642,-24.699929],[-61.156857,-24.703837],[-61.170167,-24.709916],[-61.171593,-24.734231],[-61.150202,-24.74986],[-61.156381,-24.785016],[-61.133089,-24.786752],[-61.144022,-24.804977],[-61.092683,-24.834913],[-61.091257,-24.852697],[-61.067965,-24.857468],[-61.075102,-24.872696],[-61.04277,-24.897363],[-61.024231,-24.889125],[-61.031837,-24.901265],[-61.01615,-24.909502],[-61.020235,-24.921316],[-60.994186,-24.916385],[-60.99571,-24.933778],[-60.963973,-24.948386],[-60.953522,-24.972647],[-60.921554,-24.97928],[-60.941519,-24.990979],[-60.940093,-25.004408],[-60.927258,-24.992711],[-60.921078,-25.010473],[-60.892082,-25.011339],[-60.86974,-25.031263],[-60.821728,-25.034295],[-60.83694,-25.038192],[-60.814123,-25.074565],[-60.806992,-25.064174],[-60.748523,-25.069369],[-60.767537,-25.090583],[-60.738065,-25.097509],[-60.721447,-25.12521],[-60.700036,-25.119582],[-60.676268,-25.135594],[-60.686251,-25.113956],[-60.653451,-25.119582],[-60.670564,-25.149008],[-60.644419,-25.1542],[-60.65155,-25.165448],[-60.630634,-25.177561],[-60.608292,-25.177128],[-60.60544,-25.159392],[-60.58595,-25.177993],[-60.571214,-25.169774],[-60.568362,-25.198755],[-60.541002,-25.167448],[-60.529648,-25.171784],[-60.510212,-25.1883],[-60.50831,-25.213816],[-60.489771,-25.209492],[-60.485017,-25.235869],[-60.44176,-25.265266],[-60.427499,-25.315397],[-60.413714,-25.30762],[-60.388995,-25.335271],[-60.354294,-25.322742],[-60.338607,-25.365507],[-60.346213,-25.380191],[-60.312937,-25.388396],[-60.333853,-25.391418],[-60.327198,-25.407394],[-60.307708,-25.405667],[-60.32292,-25.424231],[-60.295824,-25.409984],[-60.300103,-25.427684],[-60.282514,-25.433296],[-60.274433,-25.466528],[-60.252567,-25.463939],[-60.224521,-25.485083],[-60.241158,-25.508811],[-60.226897,-25.501477],[-60.220242,-25.534259],[-60.241633,-25.544609],[-60.237831,-25.559271],[-60.205031,-25.573931],[-60.226422,-25.586002],[-60.184115,-25.611434],[-60.203129,-25.613589],[-60.175083,-25.630396],[-60.192671,-25.635998],[-60.176985,-25.659696],[-60.142283,-25.637291],[-60.115663,-25.663143],[-60.101402,-25.657542],[-60.102829,-25.670036],[-60.034852,-25.689419],[-60.011559,-25.729469],[-59.97971,-25.723011],[-59.986841,-25.743247],[-59.954992,-25.769936],[-59.942632,-25.759606],[-59.943108,-25.773379],[-59.921717,-25.778975],[-59.92647,-25.791886],[-59.877508,-25.802213],[-59.879063,-25.841987],[-59.859207,-25.838028],[-59.871339,-25.845802],[-59.843676,-25.856047],[-59.836128,-25.875978],[-59.827161,-25.869637],[-59.81572,-25.884432],[-59.826803,-25.889937],[-59.78118,-25.896681],[-59.788284,-25.909712],[-59.764571,-25.916001],[-59.768644,-25.925682],[-59.753458,-25.920721],[-59.75452,-25.955628],[-59.743572,-25.949521],[-59.751428,-25.963237],[-59.740805,-25.975545],[-59.72787,-25.97015],[-59.725094,-25.999758],[-59.708057,-25.996323],[-59.707787,-26.009779],[-59.671168,-26.003304],[-59.685435,-26.009403],[-59.668182,-26.024916],[-59.678641,-26.054133],[-59.663611,-26.06246],[-59.68251,-26.089486],[-59.678304,-26.115002],[-59.649268,-26.119455],[-59.660456,-26.143402],[-59.626247,-26.13434],[-59.639353,-26.116772],[-59.608874,-26.123712],[-59.605861,-26.114629],[-59.597208,-26.130961],[-59.584773,-26.121826],[-59.574229,-26.152815],[-59.535484,-26.141322],[-59.477396,-26.162347],[-59.438301,-26.149132],[-59.408793,-26.179131],[-59.420658,-26.1783],[-59.428885,-26.198811],[-59.410298,-26.207102],[-59.415862,-26.222161],[-59.397935,-26.258624],[-59.381307,-26.261717],[-59.396067,-26.273781],[-59.386937,-26.29473],[-59.403288,-26.299484],[-59.357506,-26.33797],[-59.312988,-26.31895],[-59.311118,-26.339427],[-59.25241,-26.348706],[-59.254734,-26.340487],[-59.192587,-26.329734],[-59.181965,-26.304718],[-59.140226,-26.299443],[-59.1388,-26.312724],[-59.153872,-26.31686],[-59.110278,-26.326004],[-59.128817,-26.343994],[-59.106,-26.344851],[-59.068475,-26.374233],[-59.042898,-26.365348],[-59.024081,-26.38122],[-58.985715,-26.379999],[-58.95556,-26.399876],[-58.909809,-26.462557],[-58.865752,-26.475083],[-58.845614,-26.519216],[-58.792258,-26.519425],[-58.795034,-26.536524],[-58.772284,-26.536917],[-58.744377,-26.602646],[-58.689424,-26.594151],[-58.681546,-26.642494],[-58.611001,-26.681494],[-58.572181,-26.687517],[-58.569117,-26.727702],[-58.545387,-26.751587],[-58.5446,-26.738628],[-58.530815,-26.740762],[-58.534142,-26.756125],[-58.485656,-26.794952],[-58.473296,-26.828222],[-58.450479,-26.817133],[-58.443824,-26.83206],[-58.396763,-26.832487],[-58.398665,-26.864892],[-58.379175,-26.861908],[-58.380321,-26.887965],[-58.484137,-26.935354],[-58.472606,-27.003836],[-58.519433,-27.001951],[-58.502301,-27.056031],[-58.517206,-27.062656],[-58.523488,-27.039642],[-58.556039,-27.035701],[-58.554897,-27.108913],[-58.62571,-27.113881],[-58.652207,-27.130556],[-58.66163,-27.186578],[-58.592479,-27.229028],[-58.616488,-27.318632],[-58.668787,-27.359092],[-58.781012,-27.381778],[-58.881402,-27.497892],[-58.871019,-27.571271],[-58.882746,-27.608523],[-58.835497,-27.646641],[-58.818775,-27.681178],[-58.809708,-27.783407],[-58.844894,-27.885572],[-58.829262,-27.961873],[-58.857739,-28.011612],[-58.865299,-28.056653],[-58.880822,-28.066825],[-58.892415,-28.045669],[-58.884005,-28.000001],[-61.712045,-27.998552],[-61.711816,-25.654744],[-63.422412,-25.64922],[-62.342352,-24.392113],[-62.342157,-24.110249],[-62.326716,-24.078676],[-62.309603,-24.105295],[-62.32434,-24.123184]]]},"properties":{"id":"22","nombre":"Chaco","nombre_completo":"Provincia del Chaco","fuente":"IGN","categoria":"Provincia","centroide":{"lon":-60.76511626,"lat":-26.386987184},"iso_id":"AR-H","iso_nombre":"Chaco"}},{"type":"Feature","geometry":{"type":"Polygon","coordinates":[[[-62.312005,-22.48666],[-62.290366,-22.474434],[-62.28707,-22.522657],[-62.280918,-22.51143],[-62.252286,-22.5153],[-62.254639,-22.532051],[-62.234095,-22.54433],[-62.233477,-22.57049],[-62.26421,-22.600209],[-62.235794,-22.615725],[-62.242354,-22.628359],[-62.22574,-22.622642],[-62.207208,-22.645761],[-62.188956,-22.622548],[-62.20102,-22.683658],[-62.186291,-22.678685],[-62.177224,-22.693607],[-62.201074,-22.695128],[-62.196987,-22.714277],[-62.18491,-22.705103],[-62.108199,-22.819527],[-62.095241,-22.806137],[-62.072169,-22.846668],[-62.040548,-22.869415],[-62.024822,-22.927711],[-61.998988,-22.93051],[-62.010376,-22.975686],[-61.996766,-22.966075],[-62.005953,-22.988472],[-61.992498,-22.992033],[-61.99712,-23.010175],[-61.989467,-23.002924],[-61.982782,-23.022899],[-61.951611,-23.033761],[-61.955336,-23.048513],[-61.940064,-23.046541],[-61.934727,-23.067687],[-61.89183,-23.069633],[-61.87265,-23.093127],[-61.860562,-23.085719],[-61.818255,-23.127097],[-61.806596,-23.15699],[-61.754424,-23.171093],[-61.734665,-23.199464],[-61.734897,-23.235754],[-61.663075,-23.27665],[-61.670797,-23.284517],[-61.636656,-23.27543],[-61.572954,-23.30403],[-61.566557,-23.339381],[-61.514961,-23.352151],[-61.522207,-23.377273],[-61.494122,-23.424436],[-61.44949,-23.419048],[-61.384661,-23.459012],[-61.384664,-23.447246],[-61.37642,-23.457566],[-61.35207,-23.449954],[-61.292669,-23.495426],[-61.280861,-23.488671],[-61.2921,-23.509286],[-61.273786,-23.506186],[-61.27761,-23.516992],[-61.263155,-23.516334],[-61.246901,-23.540801],[-61.215117,-23.551752],[-61.189738,-23.540672],[-61.195368,-23.549969],[-61.176573,-23.547538],[-61.146599,-23.580215],[-61.130166,-23.578505],[-61.131921,-23.598014],[-61.12189,-23.584904],[-61.089515,-23.613861],[-61.101149,-23.626982],[-61.090499,-23.639054],[-61.095178,-23.666661],[-61.081145,-23.670904],[-61.086722,-23.679858],[-61.039989,-23.743022],[-61.015144,-23.758246],[-61.020403,-23.772625],[-60.986809,-23.812867],[-60.964946,-23.808633],[-60.958946,-23.820574],[-60.933932,-23.800326],[-60.857758,-23.849203],[-60.847339,-23.871548],[-60.742974,-23.87272],[-60.694212,-23.902591],[-60.612822,-23.903819],[-60.587355,-23.917024],[-60.592763,-23.943038],[-60.580016,-23.952996],[-60.589928,-23.958839],[-60.509661,-23.970865],[-60.477794,-23.950936],[-60.389508,-23.994954],[-60.374233,-24.023722],[-60.3355,-24.0216],[-60.295069,-24.041431],[-60.177525,-24.044022],[-60.039006,-24.011656],[-59.475908,-24.331139],[-59.456599,-24.373513],[-59.421276,-24.408879],[-59.374104,-24.421867],[-59.350488,-24.483049],[-59.293446,-24.515487],[-59.257605,-24.519681],[-59.241276,-24.546063],[-59.185538,-24.563641],[-59.127806,-24.617952],[-59.07983,-24.621284],[-59.023883,-24.660099],[-58.972971,-24.662056],[-58.807361,-24.772409],[-58.726992,-24.774331],[-58.708566,-24.810518],[-58.68875,-24.810176],[-58.673502,-24.831515],[-58.573584,-24.821026],[-58.526185,-24.850817],[-58.510899,-24.843507],[-58.473704,-24.860906],[-58.430017,-24.893304],[-58.428627,-24.923438],[-58.40834,-24.923057],[-58.391374,-24.953019],[-58.348316,-24.971731],[-58.333677,-25.000018],[-58.255365,-24.931865],[-58.224653,-24.927106],[-58.224438,-24.942025],[-58.202,-24.949663],[-58.193467,-24.968033],[-58.14978,-24.975214],[-58.13716,-25.011677],[-58.113154,-25.019626],[-58.090575,-25.00875],[-58.068674,-25.045712],[-58.005742,-25.035062],[-57.999517,-25.074166],[-57.975375,-25.086273],[-57.941768,-25.071682],[-57.861132,-25.08159],[-57.837014,-25.131425],[-57.753504,-25.176473],[-57.748621,-25.20674],[-57.759062,-25.220274],[-57.735677,-25.234637],[-57.741026,-25.253254],[-57.722685,-25.253054],[-57.722428,-25.277534],[-57.711835,-25.273051],[-57.705096,-25.291734],[-57.694446,-25.285967],[-57.707228,-25.300063],[-57.70285,-25.322201],[-57.642351,-25.383355],[-57.596518,-25.401064],[-57.560602,-25.452714],[-57.579709,-25.512534],[-57.572647,-25.556052],[-57.580414,-25.569416],[-57.60457,-25.568787],[-57.616848,-25.616072],[-57.674983,-25.596998],[-57.678067,-25.661072],[-57.719926,-25.646339],[-57.742785,-25.651878],[-57.76665,-25.700131],[-57.727122,-25.715039],[-57.773565,-25.757607],[-57.826545,-25.754442],[-57.796564,-25.824855],[-57.816266,-25.847413],[-57.858469,-25.858001],[-57.863037,-25.882201],[-57.836767,-25.915599],[-57.878969,-25.932274],[-57.895302,-25.960713],[-57.854014,-25.987439],[-57.854756,-26.008455],[-57.919515,-26.032325],[-57.946413,-26.066019],[-58.015404,-26.101668],[-58.090928,-26.11628],[-58.118638,-26.154354],[-58.11966,-26.186495],[-58.159009,-26.181187],[-58.104227,-26.229894],[-58.163825,-26.264373],[-58.159666,-26.348817],[-58.210453,-26.378972],[-58.221727,-26.399495],[-58.1809,-26.457397],[-58.233603,-26.473542],[-58.207457,-26.498438],[-58.224932,-26.536072],[-58.199805,-26.560513],[-58.194094,-26.597804],[-58.210199,-26.622132],[-58.191296,-26.646345],[-58.21511,-26.654911],[-58.260224,-26.645089],[-58.246005,-26.750337],[-58.259768,-26.762273],[-58.293347,-26.757761],[-58.283981,-26.795395],[-58.334863,-26.809557],[-58.317895,-26.852734],[-58.325272,-26.869674],[-58.370213,-26.864266],[-58.378236,-26.879842],[-58.382503,-26.858924],[-58.398665,-26.864892],[-58.390584,-26.841015],[-58.401042,-26.829928],[-58.404369,-26.840589],[-58.409123,-26.827369],[-58.428137,-26.833766],[-58.422433,-26.824384],[-58.443824,-26.83206],[-58.450479,-26.817133],[-58.473296,-26.828222],[-58.485656,-26.794952],[-58.534142,-26.756125],[-58.530815,-26.740762],[-58.5446,-26.738628],[-58.545387,-26.751587],[-58.569117,-26.727702],[-58.572181,-26.687517],[-58.611001,-26.681494],[-58.681546,-26.642494],[-58.689424,-26.594151],[-58.744377,-26.602646],[-58.772284,-26.536917],[-58.795034,-26.536524],[-58.792258,-26.519425],[-58.845614,-26.519216],[-58.865752,-26.475083],[-58.909809,-26.462557],[-58.95556,-26.399876],[-58.985715,-26.379999],[-59.024081,-26.38122],[-59.042898,-26.365348],[-59.068475,-26.374233],[-59.106,-26.344851],[-59.128817,-26.343994],[-59.110278,-26.326004],[-59.153872,-26.31686],[-59.1388,-26.312724],[-59.140226,-26.299443],[-59.181965,-26.304718],[-59.192587,-26.329734],[-59.254734,-26.340487],[-59.25241,-26.348706],[-59.311118,-26.339427],[-59.312988,-26.31895],[-59.357506,-26.33797],[-59.403288,-26.299484],[-59.386937,-26.29473],[-59.396067,-26.273781],[-59.381307,-26.261717],[-59.397935,-26.258624],[-59.415862,-26.222161],[-59.410298,-26.207102],[-59.428885,-26.198811],[-59.420658,-26.1783],[-59.408793,-26.179131],[-59.438301,-26.149132],[-59.477396,-26.162347],[-59.535484,-26.141322],[-59.574229,-26.152815],[-59.584773,-26.121826],[-59.597208,-26.130961],[-59.605861,-26.114629],[-59.608874,-26.123712],[-59.639353,-26.116772],[-59.626247,-26.13434],[-59.660456,-26.143402],[-59.649268,-26.119455],[-59.678304,-26.115002],[-59.68251,-26.089486],[-59.663611,-26.06246],[-59.678641,-26.054133],[-59.668182,-26.024916],[-59.685435,-26.009403],[-59.671168,-26.003304],[-59.707787,-26.009779],[-59.708057,-25.996323],[-59.725094,-25.999758],[-59.72787,-25.97015],[-59.740805,-25.975545],[-59.751428,-25.963237],[-59.743572,-25.949521],[-59.75452,-25.955628],[-59.753458,-25.920721],[-59.768644,-25.925682],[-59.764571,-25.916001],[-59.788284,-25.909712],[-59.78118,-25.896681],[-59.826803,-25.889937],[-59.81572,-25.884432],[-59.827161,-25.869637],[-59.836128,-25.875978],[-59.843676,-25.856047],[-59.871339,-25.845802],[-59.859207,-25.838028],[-59.879063,-25.841987],[-59.877508,-25.802213],[-59.92647,-25.791886],[-59.921717,-25.778975],[-59.943108,-25.773379],[-59.942632,-25.759606],[-59.954992,-25.769936],[-59.986841,-25.743247],[-59.97971,-25.723011],[-60.011559,-25.729469],[-60.034852,-25.689419],[-60.102829,-25.670036],[-60.101402,-25.657542],[-60.115663,-25.663143],[-60.142283,-25.637291],[-60.176985,-25.659696],[-60.192671,-25.635998],[-60.175083,-25.630396],[-60.203129,-25.613589],[-60.184115,-25.611434],[-60.226422,-25.586002],[-60.205031,-25.573931],[-60.237831,-25.559271],[-60.241633,-25.544609],[-60.220242,-25.534259],[-60.226897,-25.501477],[-60.241158,-25.508811],[-60.224521,-25.485083],[-60.252567,-25.463939],[-60.274433,-25.466528],[-60.282514,-25.433296],[-60.300103,-25.427684],[-60.295824,-25.409984],[-60.32292,-25.424231],[-60.307708,-25.405667],[-60.327198,-25.407394],[-60.333853,-25.391418],[-60.312937,-25.388396],[-60.346213,-25.380191],[-60.338607,-25.365507],[-60.354294,-25.322742],[-60.388995,-25.335271],[-60.413714,-25.30762],[-60.427499,-25.315397],[-60.44176,-25.265266],[-60.485017,-25.235869],[-60.489771,-25.209492],[-60.50831,-25.213816],[-60.510212,-25.1883],[-60.529648,-25.171784],[-60.541002,-25.167448],[-60.568362,-25.198755],[-60.571214,-25.169774],[-60.58595,-25.177993],[-60.60544,-25.159392],[-60.608292,-25.177128],[-60.630634,-25.177561],[-60.65155,-25.165448],[-60.644419,-25.1542],[-60.670564,-25.149008],[-60.653451,-25.119582],[-60.686251,-25.113956],[-60.676268,-25.135594],[-60.700036,-25.119582],[-60.721447,-25.12521],[-60.738065,-25.097509],[-60.767537,-25.090583],[-60.748523,-25.069369],[-60.806992,-25.064174],[-60.814123,-25.074565],[-60.83694,-25.038192],[-60.821728,-25.034295],[-60.86974,-25.031263],[-60.892082,-25.011339],[-60.921078,-25.010473],[-60.927258,-24.992711],[-60.940093,-25.004408],[-60.941519,-24.990979],[-60.921554,-24.97928],[-60.953522,-24.972647],[-60.963973,-24.948386],[-60.99571,-24.933778],[-60.994186,-24.916385],[-61.020235,-24.921316],[-61.01615,-24.909502],[-61.031837,-24.901265],[-61.024231,-24.889125],[-61.04277,-24.897363],[-61.075102,-24.872696],[-61.067965,-24.857468],[-61.091257,-24.852697],[-61.092683,-24.834913],[-61.144022,-24.804977],[-61.133089,-24.786752],[-61.156381,-24.785016],[-61.150202,-24.74986],[-61.171593,-24.734231],[-61.170167,-24.709916],[-61.156857,-24.703837],[-61.170642,-24.699929],[-61.180149,-24.722509],[-61.208074,-24.698026],[-61.201065,-24.682557],[-61.217703,-24.665616],[-61.199164,-24.674304],[-61.197262,-24.661272],[-61.22721,-24.655191],[-61.230062,-24.635205],[-61.244323,-24.653453],[-61.255731,-24.621735],[-61.276062,-24.639155],[-61.284728,-24.624342],[-61.346107,-24.638663],[-61.361836,-24.621647],[-61.381226,-24.637812],[-61.382725,-24.612757],[-61.453956,-24.612175],[-61.481052,-24.595225],[-61.477249,-24.57523],[-61.518764,-24.547014],[-61.518605,-24.51914],[-61.596403,-24.479293],[-61.582844,-24.441594],[-61.597515,-24.438221],[-61.60417,-24.455627],[-61.61035,-24.421683],[-61.639698,-24.434575],[-61.694488,-24.415154],[-61.713978,-24.383375],[-61.694013,-24.365959],[-61.728239,-24.359427],[-61.720633,-24.33983],[-61.760563,-24.328505],[-61.761514,-24.306725],[-61.798592,-24.336345],[-61.839948,-24.301497],[-61.879321,-24.307321],[-61.883681,-24.266639],[-61.908516,-24.306762],[-61.920264,-24.283899],[-61.904008,-24.27777],[-61.907838,-24.259432],[-61.95451,-24.26141],[-61.945003,-24.239182],[-61.984652,-24.227095],[-61.979229,-24.245284],[-61.989211,-24.250514],[-62.017733,-24.226976],[-62.041025,-24.240489],[-62.055286,-24.211282],[-62.082857,-24.230464],[-62.076428,-24.201301],[-62.138474,-24.218694],[-62.136097,-24.196022],[-62.180781,-24.19515],[-62.171749,-24.177707],[-62.182682,-24.155029],[-62.216433,-24.151103],[-62.228317,-24.135399],[-62.243528,-24.145432],[-62.301522,-24.116203],[-62.32434,-24.123184],[-62.309603,-24.105295],[-62.326716,-24.078676],[-62.342157,-24.110249],[-62.342256,-22.460941],[-62.334461,-22.478732],[-62.312005,-22.48666]]]},"properties":{"id":"34","nombre":"Formosa","nombre_completo":"Provincia de Formosa","fuente":"IGN","categoria":"Provincia","centroide":{"lon":-59.932190112,"lat":-24.895087176},"iso_id":"AR-P","iso_nombre":"Formosa"}},{"type":"Feature","geometry":{"type":"MultiPolygon","coordinates":[[[[-54.109057,-25.539824],[-54.123582,-25.571637],[-54.100406,-25.618192],[-54.081095,-25.55825],[-54.049077,-25.585373],[-54.016363,-25.563655],[-53.970144,-25.601017],[-53.978109,-25.61029],[-53.965441,-25.612693],[-53.962259,-25.643477],[-53.951263,-25.646724],[-53.943499,-25.61103],[-53.932799,-25.62261],[-53.916625,-25.616216],[-53.912246,-25.636309],[-53.890714,-25.622984],[-53.894969,-25.643188],[-53.876414,-25.645103],[-53.889994,-25.661277],[-53.862074,-25.658983],[-53.859404,-25.679381],[-53.842236,-25.688759],[-53.85518,-25.691436],[-53.851492,-25.706189],[-53.872444,-25.693431],[-53.865576,-25.705407],[-53.879256,-25.708031],[-53.859015,-25.72335],[-53.866337,-25.744245],[-53.834109,-25.751333],[-53.857125,-25.766329],[-53.833392,-25.777498],[-53.843324,-25.790604],[-53.822694,-25.792113],[-53.819449,-25.814951],[-53.838408,-25.815888],[-53.850081,-25.839601],[-53.823358,-25.872082],[-53.849899,-25.883774],[-53.819575,-25.898437],[-53.835241,-25.911833],[-53.818801,-25.912606],[-53.820605,-25.927608],[-53.833806,-25.920625],[-53.842917,-25.933681],[-53.828082,-25.96364],[-53.83607,-25.971906],[-53.813777,-25.980118],[-53.817883,-25.989982],[-53.802864,-25.984617],[-53.77164,-26.03151],[-53.737276,-26.041433],[-53.726722,-26.064822],[-53.742585,-26.081772],[-53.744293,-26.116237],[-53.710403,-26.130531],[-53.641272,-26.213878],[-53.653514,-26.235097],[-53.637383,-26.249682],[-53.646187,-26.24837],[-53.645624,-26.286073],[-53.710055,-26.387959],[-53.696623,-26.402093],[-53.705451,-26.416381],[-53.687331,-26.430848],[-53.688402,-26.443424],[-53.704249,-26.441865],[-53.698276,-26.469598],[-53.715337,-26.471121],[-53.695873,-26.475237],[-53.695945,-26.490442],[-53.705213,-26.509002],[-53.729493,-26.501476],[-53.716862,-26.527659],[-53.723097,-26.542326],[-53.741752,-26.544611],[-53.725295,-26.554281],[-53.735927,-26.566606],[-53.714255,-26.55646],[-53.707544,-26.560915],[-53.722059,-26.562133],[-53.724619,-26.58903],[-53.732786,-26.58648],[-53.739829,-26.644082],[-53.759531,-26.64114],[-53.726342,-26.658777],[-53.724924,-26.647717],[-53.720089,-26.650953],[-53.731606,-26.677775],[-53.717367,-26.684685],[-53.72876,-26.692185],[-53.743465,-26.681525],[-53.734442,-26.717017],[-53.754115,-26.709745],[-53.757954,-26.720287],[-53.742722,-26.731084],[-53.750099,-26.740707],[-53.731758,-26.730894],[-53.714102,-26.750691],[-53.743541,-26.763854],[-53.698788,-26.769517],[-53.717043,-26.782109],[-53.700187,-26.797899],[-53.698122,-26.814318],[-53.7108,-26.81131],[-53.688414,-26.83777],[-53.69481,-26.846983],[-53.679562,-26.842338],[-53.660174,-26.858395],[-53.696751,-26.859822],[-53.679971,-26.869731],[-53.695609,-26.886891],[-53.670891,-26.894667],[-53.672671,-26.912951],[-53.696856,-26.929217],[-53.671196,-26.942485],[-53.709039,-26.93409],[-53.703176,-26.960179],[-53.726076,-26.958818],[-53.736955,-26.974303],[-53.717852,-26.990188],[-53.743569,-26.991968],[-53.731739,-27.004389],[-53.740333,-27.014602],[-53.763524,-27.008394],[-53.747248,-27.032176],[-53.764,-27.045359],[-53.785569,-27.026347],[-53.760062,-27.065096],[-53.802178,-27.040088],[-53.797015,-27.060064],[-53.771697,-27.073627],[-53.797395,-27.066084],[-53.805402,-27.078612],[-53.776349,-27.103429],[-53.818644,-27.102156],[-53.804438,-27.122667],[-53.824692,-27.132359],[-53.798266,-27.145836],[-53.827933,-27.145746],[-53.836696,-27.169661],[-53.873405,-27.125934],[-53.910634,-27.176807],[-53.951805,-27.152829],[-53.960752,-27.196128],[-54.008431,-27.199287],[-54.020053,-27.246755],[-54.055134,-27.263661],[-54.08446,-27.299776],[-54.15412,-27.29688],[-54.157252,-27.261842],[-54.173278,-27.254989],[-54.189732,-27.27569],[-54.214752,-27.383516],[-54.262793,-27.398756],[-54.26779,-27.437054],[-54.281567,-27.44719],[-54.338281,-27.403039],[-54.34517,-27.425596],[-54.334421,-27.453133],[-54.353337,-27.466267],[-54.413157,-27.406519],[-54.469871,-27.42772],[-54.442246,-27.461877],[-54.44635,-27.474155],[-54.504278,-27.481829],[-54.530191,-27.506564],[-54.581656,-27.453407],[-54.622276,-27.542041],[-54.64221,-27.54446],[-54.658682,-27.510918],[-54.677908,-27.510252],[-54.67134,-27.561029],[-54.683666,-27.574973],[-54.742962,-27.562267],[-54.774466,-27.58511],[-54.794025,-27.537473],[-54.812871,-27.532619],[-54.846802,-27.620278],[-54.905051,-27.638647],[-54.902814,-27.721024],[-54.936241,-27.771868],[-54.985489,-27.771525],[-55.008277,-27.797622],[-55.055931,-27.770049],[-55.083936,-27.785968],[-55.025023,-27.832573],[-55.029164,-27.853941],[-55.108495,-27.847421],[-55.125202,-27.8588],[-55.134383,-27.896153],[-55.171451,-27.861077],[-55.197201,-27.85713],[-55.264207,-27.928894],[-55.322599,-27.924421],[-55.339017,-27.966299],[-55.384417,-27.982955],[-55.368652,-28.019076],[-55.376044,-28.034973],[-55.422781,-28.060974],[-55.447751,-28.099058],[-55.498155,-28.080989],[-55.513099,-28.113873],[-55.541326,-28.124555],[-55.554787,-28.162795],[-55.587766,-28.146139],[-55.58848,-28.11849],[-55.607563,-28.1163],[-55.630211,-28.138839],[-55.712579,-28.088184],[-55.716718,-28.061268],[-55.758025,-28.06081],[-55.749427,-28.0271],[-55.824392,-27.948447],[-55.81359,-27.921022],[-55.831762,-27.904133],[-55.827123,-27.854597],[-55.846303,-27.832436],[-55.825537,-27.791656],[-55.9789,-27.5402],[-56.026635,-27.507277],[-56.054612,-27.450946],[-56.055421,-27.420687],[-56.036937,-27.415187],[-56.043216,-27.404992],[-56.028888,-27.382855],[-56.039906,-27.349216],[-56.024622,-27.338424],[-56.030459,-27.330259],[-55.975489,-27.355629],[-55.896346,-27.342718],[-55.838908,-27.407476],[-55.787112,-27.44021],[-55.732774,-27.443108],[-55.683316,-27.378756],[-55.589636,-27.331687],[-55.602394,-27.284618],[-55.574386,-27.270945],[-55.574081,-27.250257],[-55.611594,-27.212998],[-55.618761,-27.187177],[-55.607731,-27.161304],[-55.56112,-27.160948],[-55.561323,-27.101324],[-55.455545,-27.106255],[-55.44574,-27.025378],[-55.375741,-26.966166],[-55.306663,-26.963879],[-55.257052,-26.937701],[-55.203121,-26.969877],[-55.141464,-26.953458],[-55.130078,-26.938667],[-55.15029,-26.895954],[-55.141566,-26.866335],[-55.057543,-26.798985],[-54.95626,-26.781356],[-54.942158,-26.68238],[-54.880297,-26.655999],[-54.831507,-26.674098],[-54.812421,-26.667842],[-54.784778,-26.623262],[-54.807719,-26.560957],[-54.800544,-26.536115],[-54.706353,-26.449134],[-54.696645,-26.377714],[-54.647569,-26.31147],[-54.678585,-26.262537],[-54.618016,-26.214246],[-54.672518,-26.156282],[-54.643107,-26.093607],[-54.679692,-26.003556],[-54.667414,-25.981499],[-54.610735,-25.977787],[-54.622013,-25.912399],[-54.586719,-25.83062],[-54.631169,-25.765533],[-54.655242,-25.67038],[-54.637793,-25.659829],[-54.583674,-25.666263],[-54.594925,-25.597435],[-54.555332,-25.587703],[-54.534945,-25.598625],[-54.527678,-25.62832],[-54.500018,-25.614584],[-54.468829,-25.637186],[-54.428923,-25.694065],[-54.42476,-25.657993],[-54.394838,-25.637553],[-54.382441,-25.596332],[-54.347344,-25.606058],[-54.328387,-25.571481],[-54.288417,-25.55573],[-54.250519,-25.597716],[-54.235172,-25.59304],[-54.230556,-25.563012],[-54.178779,-25.584886],[-54.174673,-25.57278],[-54.205005,-25.557774],[-54.205346,-25.540092],[-54.164055,-25.542255],[-54.102558,-25.494315],[-54.092637,-25.509034],[-54.109057,-25.539824]]],[[[-55.927544,-27.333644],[-55.928887,-27.338344],[-55.960362,-27.34187],[-55.9471,-27.335239],[-55.927544,-27.333644]]],[[[-56.003001,-27.337085],[-55.997125,-27.338596],[-55.996202,-27.340275],[-56.005099,-27.337421],[-56.003001,-27.337085]]]]},"properties":{"id":"54","nombre":"Misiones","nombre_completo":"Provincia de Misiones","fuente":"IGN","categoria":"Provincia","centroide":{"lon":-54.651570563,"lat":-26.875302599},"iso_id":"AR-N","iso_nombre":"Misiones"}}]}
